SL-3 R/B                
1 19046U 88032B   19078.70670115  .00000760  00000-0  60883-4 0  9995
2 19046  97.4479 113.8404 0036610 316.8397  42.9960 15.02549394668817
SL-16 R/B               
1 19120U 88039B   19078.58185352 -.00000061  00000-0 -59315-5 0  9990
2 19120  71.0152  51.7804 0024261 284.6132  75.2303 14.19193437596975
COSMOS 1953             
1 19210U 88050A   19078.40537683  .00000147  00000-0  81245-5 0  9992
2 19210  82.5154 132.4216 0011692 230.2935 129.7263 15.05726858653036
SL-8 R/B                
1 19257U 88053B   19078.73698257  .00000091  00000-0  39017-4 0  9994
2 19257  74.0474 118.8910 0021182 214.0581 262.1121 14.37428047610524
COSMOS 1975             
1 19573U 88093A   19078.51544758  .00000119  00000-0  64500-5 0  9998
2 19573  82.5175  85.7171 0012734 277.5316  82.4464 15.04642899634944
SL-14 R/B               
1 19574U 88093B   19078.53461788  .00000086  00000-0  75696-5 0  9993
2 19574  82.5290 266.3458 0022098 161.5611 221.7169 14.83291748623286
SL-16 R/B               
1 19650U 88102B   19078.70016908  .00000083  00000-0  66801-4 0  9992
2 19650  70.9976 108.2572 0016490 285.2756  74.6544 14.15775115566375
INTERCOSMOS 24          
1 20261U 89080A   19078.64845830  .00000160  00000-0  38909-4 0  9999
2 20261  82.6038 315.2253 1203779  59.6091 311.8467 12.56054709346361
SL-14 R/B               
1 20262U 89080C   19078.75292327 -.00000009  00000-0 -47166-5 0  9999
2 20262  82.5998   5.8082 1236056 236.1176 111.6300 12.48913222342103
DELTA 1 R/B             
1 20323U 89089B   19078.58967047  .00000012  00000-0  12229-4 0  9998
2 20323  97.0780 293.3016 0070642 225.4628 134.0785 14.48293326526884
DELTA 2 R/B(1)          
1 20453U 90008B   19078.33973836  .00000799  00000-0  48652-4 0  9992
2 20453  35.6245  64.1827 0282934  99.8123 263.4656 14.84776983543358
COSMOS 2058             
1 20465U 90010A   19078.73494497  .00000210  00000-0  15583-4 0  9998
2 20465  82.4923 351.8101 0014124 300.2917  59.6907 14.97844412560102
SL-14 R/B               
1 20466U 90010B   19078.60346384  .00000079  00000-0  71178-5 0  9992
2 20466  82.5027 133.3731 0021425  38.5907 321.6833 14.81349430551241
SL-14 R/B               
1 20511U 90018B   19078.52406469  .00000076  00000-0  69621-5 0  9990
2 20511  82.5205  77.7782 0017741 168.2447 315.0718 14.80006325566778
HST                     
1 20580U 90037B   19078.50237122  .00000464  00000-0  17331-4 0  9994
2 20580  28.4693  94.9073 0002512 218.9973 277.4043 15.09189734387013
SL-16 R/B               
1 20625U 90046B   19078.70825167  .00000276  00000-0  16826-3 0  9996
2 20625  70.9975 244.7787 0015677 220.1833 139.8131 14.14640583488167
COSMOS 2084             
1 20663U 90055A   19078.50904249  .00000064  00000-0  24245-4 0  9995
2 20663  62.7926 250.4403 0089451 156.3141 204.2111 14.91952676555339
SL-6 R/B(2)             
1 20666U 90055D   19078.43956898 -.00000005  00000-0  17737-4 0  9991
2 20666  62.7860 168.0800 0055363 184.2405 175.8228 14.92224436557243
SL-8 R/B                
1 20775U 90078B   19078.65354290  .00003991  00000-0  19507-3 0  9991
2 20775  82.9249 242.0961 0579159 165.2232 196.6731 14.33048966440430
SL-8 R/B                
1 21088U 91006B   19078.53432410  .00000115  00000-0  10076-3 0  9996
2 21088  82.9387 264.1789 0021853 330.5985  51.5257 13.77113765413461
OKEAN-3                 
1 21397U 91039A   19078.52636079  .00000239  00000-0  20560-4 0  9998
2 21397  82.5196 250.0040 0016426 253.8585 106.0827 14.92776508505307
COSMOS 2151             
1 21422U 91042A   19078.70413229  .00000139  00000-0  11156-4 0  9991
2 21422  82.5034 356.8210 0013205 320.7733  39.2529 14.92029793482927
SL-14 R/B               
1 21423U 91042B   19078.50485278  .00000077  00000-0  71594-5 0  9997
2 21423  82.4911  83.0284 0016514 316.9430  43.0490 14.79757361476239
ERS-1                   
1 21574U 91050A   19078.50132183  .00000023  00000-0  22390-4 0  9997
2 21574  98.5401  28.3490 0032400 203.0634 156.9100 14.37685447449582
ARIANE 40 R/B           
1 21610U 91050F   19078.67932160 -.00000002  00000-0  13168-4 0  9990
2 21610  98.5184 146.0304 0003480 166.5876 355.5974 14.40864973452060
INTERCOSMOS 25          
1 21819U 91086A   19078.45262265 -.00000184  00000-0 -42734-4 0  9991
2 21819  82.5888  39.2512 1518456 163.5887 202.0564 12.04954850189366
SL-14 R/B               
1 21820U 91086B   19078.44114956  .00000198  00000-0  35067-4 0  9999
2 21820  82.5557 100.7852 1576434  17.3893 347.5362 11.93436889183151
SL-8 R/B                
1 21876U 92008B   19078.35083498  .00000038  00000-0  23754-4 0  9994
2 21876  82.9309   1.4177 0035903  48.5868  99.2383 13.75637151359398
SL-8 R/B                
1 21938U 92020B   19078.50884618  .00000135  00000-0  12511-3 0  9993
2 21938  82.9278 245.0629 0028758 203.3863 186.7509 13.75272780351304
SL-16 R/B               
1 22220U 92076B   19078.72720503 -.00000215  00000-0 -84057-4 0  9991
2 22220  71.0002 150.9121 0012401   6.0116 102.4846 14.16443150361140
SL-16 R/B               
1 22285U 92093B   19078.62879779 -.00000264  00000-0 -11172-3 0  9991
2 22285  71.0212 308.7747 0006274 244.1956 115.8519 14.15029225352854
COSMOS 2228             
1 22286U 92094A   19078.20525978  .00000206  00000-0  19633-4 0  9991
2 22286  82.5193 130.4061 0021998 152.7557 207.4820 14.88023919396596
SL-16 R/B               
1 22566U 93016B   19078.70147429  .00000212  00000-0  13400-3 0  9995
2 22566  71.0074 162.4256 0012324 243.5152 116.4708 14.14954615341861
COSMOS 2242             
1 22626U 93024A   19078.67746108  .00000169  00000-0  15695-4 0  9996
2 22626  82.5237 157.8958 0019878 150.6615 209.5723 14.87883912401089
SL-16 R/B               
1 22803U 93059B   19078.38410301 -.00000046  00000-0  11370-5 0  9994
2 22803  70.9925 340.3686 0015585 136.4721 223.7635 14.16807424318701
ARIANE 40 R/B           
1 22830U 93061H   19078.48927800  .00000062  00000-0  40847-4 0  9992
2 22830  98.8272 116.7841 0010422 211.8328 148.2226 14.31431158329599
COSMOS 2278             
1 23087U 94023A   19078.60017043  .00000261  00000-0  16283-3 0  9996
2 23087  71.0511 100.4589 0010143 308.0711  51.9495 14.13778392284768
SL-16 R/B               
1 23088U 94023B   19078.47374423 -.00000281  00000-0 -12101-3 0  9999
2 23088  71.0025  18.1778 0005041 234.5388 125.5265 14.14675362285823
SL-16 R/B               
1 23343U 94074B   19078.60421080  .00000011  00000-0  89643-5 0  9992
2 23343  98.0651 128.7706 0007148 166.4188 346.6984 14.76768947311139
SL-16 R/B               
1 23405U 94077B   19078.23533094  .00000137  00000-0  95173-4 0  9995
2 23405  70.9837 309.6930 0000865  15.7913 344.3237 14.15210584255813
ERS-2                   
1 23560U 95021A   19078.27584291  .00001224  00000-0  56859-4 0  9992
2 23560  98.5030 166.2041 0002264 295.6516  64.4483 15.22365011272692
ARIANE 40+ R/B          
1 23561U 95021B   19078.61413236  .00000033  00000-0  26077-4 0  9997
2 23561  98.7756 104.3993 0007415 156.4688 281.1454 14.37912339253068
SL-16 R/B               
1 23705U 95058B   19078.52107894  .00000206  00000-0  13030-3 0  9993
2 23705  71.0196 125.5589 0011057  34.1247 326.0584 14.15123902207772
SL-16 R/B               
1 24298U 96051B   19078.71845121 -.00000009  00000-0  21449-4 0  9994
2 24298  70.8252 151.5890 0017749 300.4690  59.4676 14.12391720162006
ORBVIEW 2 (SEASTAR)     
1 24883U 97037A   19078.34066549  .00000056  00000-0  36175-4 0  9990
2 24883  98.5744 189.8653 0002701  39.4291 320.7089 14.33494594143623
SL-16 R/B               
1 25400U 98043G   19078.38674567 -.00000040  00000-0  13839-5 0  9990
2 25400  98.5648  18.8870 0009122 220.3670 139.6833 14.25438392 76275
SL-16 R/B               
1 25407U 98045B   19078.69889443  .00000185  00000-0  11846-3 0  9997
2 25407  71.0104 135.3966 0009577 301.3843  58.6342 14.15783401 66572
ISS (ZARYA)             
1 25544U 98067A   19079.54079067  .00002251  00000-0  43105-4 0  9991
2 25544  51.6415  81.9177 0003837 120.5763  25.3799 15.52834200161487
SL-8 R/B                
1 25723U 99022C   19078.73571602  .00007461  00000-0  82850-4 0  9992
2 25723  48.4146 326.9001 0007971 261.8587  98.1458 15.63902581106125
CZ-4B R/B               
1 25732U 99025C   19078.55865240 -.00000018  00000-0  13535-4 0  9995
2 25732  98.9838  98.0766 0038342  69.6967  81.8150 14.17660776 27226
OKEAN-O                 
1 25860U 99039A   19078.46907441  .00000025  00000-0  11319-4 0  9997
2 25860  98.2278  84.0566 0000869 107.4571 252.6733 14.76594838 58226
SL-16 R/B               
1 25861U 99039B   19078.75401757  .00000016  00000-0  97239-5 0  9995
2 25861  98.1832  67.5636 0015691 176.7540 284.0201 14.78521021 60284
TERRA                   
1 25994U 99068A   19078.14965519  .00000128  00000-0  38526-4 0  9995
2 25994  98.2096 154.0170 0001211  79.8650 350.2544 14.57109835 23868
ENVISAT                 
1 27386U 02009A   19078.60333170  .00000003  00000-0  14664-4 0  9993
2 27386  98.1581 104.2482 0001385  98.3156  67.0982 14.37943663893031
IDEFIX & ARIANE 42P R/B 
1 27422U 02021B   19078.50893035 -.00000024  00000-0  68211-5 0  9990
2 27422  98.2907  55.1439 0013035 135.2130 225.0108 14.29268738880035
AQUA                    
1 27424U 02022A   19079.54058025  .00000053  00000-0  21868-4 0  9997
2 27424  98.2104  21.7564 0001576 356.1993  63.3739 14.57101853897678
CZ-4B R/B               
1 27432U 02024C   19078.60643289 -.00000022  00000-0  12663-4 0  9996
2 27432  99.0646  68.6093 0050915  23.6999  85.5002 14.14076754869220
MIDORI II (ADEOS-II)    
1 27597U 02056A   19078.41858746  .00000025  00000-0  27494-4 0  9998
2 27597  98.4618  34.0535 0000362 131.8305 228.2907 14.27389088846750
H-2A R/B                
1 27601U 02056E   19078.52333201  .00000038  00000-0  28885-4 0  9999
2 27601  98.2882 131.1676 0072011 193.4529 294.7290 14.31883344849445
